NORAD_CAT_ID,OBJECT_NAME,OBJECT_TYPE,EPOCH,MEAN_MOTION,ECCENTRICITY,INCLINATION,RA_OF_ASC_NODE,ARG_OF_PERICENTER,MEAN_ANOMALY,BSTAR,MEAN_MOTION_DOT,MEAN_MOTION_DDOT,TLE_LINE0,TLE_LINE1,TLE_LINE2,SEMIMAJOR_AXIS,PERIOD,APOGEE,PERIGEE,DECAYED
52267.0,STARLINK-3748,PAYLOAD,2022-04-25 18:00:00,15.81431042,0.0001189,53.2178,354.8429,75.1263,132.3664,-0.0047853,-0.00877049,0.0,0 STARLINK-3748,1 52267U 22041G   22115.75001157 -.00877049  00000-0 -47853-2 0  9994,2 52267  53.2178 354.8429 0001189  75.1263 132.3664 15.81431042  1878,6704.53,91.057,327.192,325.598,0.0
52267.0,STARLINK-3748,PAYLOAD,2022-04-26 14:00:01,15.79857155,0.0001093,53.2173,350.6724,80.0505,192.1734,-0.0051416,-0.00876013,0.0,0 STARLINK-3748,1 52267U 22041G   22116.58335648 -.00876013  00000-0 -51416-2 0  9991,2 52267  53.2173 350.6724 0001093  80.0505 192.1734 15.79857155  2005,6708.982,91.147,331.58,330.1140000000001,0.0
52267.0,STARLINK-3748,PAYLOAD,2022-04-26 22:00:00,15.79229675,9.97e-05,53.2175,349.0095,89.7353,278.9636,-0.0053084,-0.00878451,0.0,0 STARLINK-3748,1 52267U 22041G   22116.91667824 -.00878451  00000-0 -53084-2 0  9993,2 52267  53.2175 349.0095 0000997  89.7353 278.9636 15.79229675  1473,6710.759,91.184,333.293,331.955,0.0
52267.0,STARLINK-3748,PAYLOAD,2022-04-27 12:00:00,15.78125947,0.0001017,53.2174,346.0975,73.8617,11.9686,-0.0055538,-0.00874442,0.0,0 STARLINK-3748,1 52267U 22041G   22117.50001157 -.00874442  00000-0 -55538-2 0  9992,2 52267  53.2174 346.0975 0001017  73.8617  11.9686 15.78125947  2148,6713.888000000001,91.247,336.435,335.07,0.0
52267.0,STARLINK-3748,PAYLOAD,2022-04-27 14:00:01,15.77970406,0.0001202,53.2175,345.6819,81.8601,117.7218,-0.0056093,-0.00876802,0.0,0 STARLINK-3748,1 52267U 22041G   22117.58335648 -.00876802  00000-0 -56093-2 0  9994,2 52267  53.2175 345.6819 0001202  81.8601 117.7218 15.77970406  1578,6714.329000000002,91.256,337.001,335.38699999999994,0.0
52267.0,STARLINK-3748,PAYLOAD,2022-04-28 04:00:01,15.76869898,0.0001074,53.2172,342.7792,90.4704,183.5926,-0.0058953,-0.00876945,0.0,0 STARLINK-3748,1 52267U 22041G   22118.16668981 -.00876945  00000-0 -58953-2 0  9993,2 52267  53.2172 342.7792 0001074  90.4704 183.5926 15.76869898  2254,6717.4519999999975,91.32,340.039,338.596,0.0
52267.0,STARLINK-3748,PAYLOAD,2022-04-28 14:00:01,15.76082031,0.000112,53.2174,340.7052,73.3994,46.6698,-0.0060923,-0.00875181,0.0,0 STARLINK-3748,1 52267U 22041G   22118.58334491 -.00875181  00000-0 -60923-2 0  9996,2 52267  53.2174 340.7052 0001120  73.3994  46.6698 15.76082031  1739,6719.691,91.366,342.309,340.80300000000005,0.0
52267.0,STARLINK-3748,PAYLOAD,2022-04-29 04:00:00,15.74981501,0.0001164,53.2172,337.8104,77.1567,113.4242,-0.006408,-0.00876708,0.0,0 STARLINK-3748,1 52267U 22041G   22119.16667824 -.00876708  00000-0 -64080-2 0  9994,2 52267  53.2172 337.8104 0001164  77.1567 113.4242 15.74981501  2409,6722.821,91.43,345.468,343.903,0.0
52267.0,STARLINK-3748,PAYLOAD,2022-04-29 14:00:01,15.74193812,0.0001009,53.2176,335.7426,79.2412,314.5753,-0.0066203999999999,-0.00875176,0.0,0 STARLINK-3748,1 52267U 22041G   22119.58334491 -.00875176  00000-0 -66204-2 0  9999,2 52267  53.2176 335.7426 0001009  79.2412 314.5753 15.74193812  1890,6725.063,91.475,347.607,346.25,0.0
52267.0,STARLINK-3748,PAYLOAD,2022-04-29 20:00:01,15.73590641,0.0001077,53.2174,334.5057,81.8918,289.3212,-0.0038968,-0.00523501,0.0,0 STARLINK-3748,1 52267U 22041G   22119.83334491 -.00523501  00000-0 -38968-2 0  9995,2 52267  53.2174 334.5057 0001077  81.8918 289.3212 15.73590641  2519,6726.781999999997,91.51,349.371,347.922,0.0
52267.0,STARLINK-3748,PAYLOAD,2022-04-29 22:00:00,15.73381713,0.0001075,53.2173,334.0935,68.3939,55.1862,-0.0019283,-0.00264944,0.0,0 STARLINK-3748,1 52267U 22041G   22119.91667824 -.00264944  00000-0 -19283-2 0  9995,2 52267  53.2173 334.0935 0001075  68.3939  55.1862 15.73381713  1943,6727.377,91.523,349.965,348.519,0.0
52267.0,STARLINK-3748,PAYLOAD,2022-04-30 04:00:00,15.73206212,0.0001036,53.2171,332.8557,81.7361,18.6378,-2.4231e-05,-4.019e-05,0.0,0 STARLINK-3748,1 52267U 22041G   22120.16667824 -.00004019  00000-0 -24231-4 0  9990,2 52267  53.2171 332.8557 0001036  81.7361  18.6378 15.73206212  2567,6727.877,91.533,350.439,349.045,0.0
52267.0,STARLINK-3748,PAYLOAD,2022-04-30 14:00:01,15.732056,0.0001235,53.2156,330.7907,83.6429,217.8782,0.00066608,0.00093933,0.0,0 STARLINK-3748,1 52267U 22041G   22120.58334491  .00093933  00000-0  66608-3 0  9991,2 52267  53.2156 330.7907 0001235  83.6429 217.8782 15.73205600  2059,6727.879,91.533,350.575,348.913,0.0
52267.0,STARLINK-3748,PAYLOAD,2022-04-30 20:00:01,15.73293075,0.0001175,53.2151,329.5552,70.6728,207.5921,-4.9936e-05,-7.65e-05,0.0,0 STARLINK-3748,1 52267U 22041G   22120.83334491 -.00007650  00000-0 -49936-4 0  9998,2 52267  53.2151 329.5552 0001175  70.6728 207.5921 15.73293075  2679,6727.63,91.528,350.285,348.704,0.0
52267.0,STARLINK-3748,PAYLOAD,2022-04-30 22:00:00,15.73303609,0.0001192,53.2153,329.1432,66.8864,323.6339,-0.00020811,-0.00029853,0.0,0 STARLINK-3748,1 52267U 22041G   22120.91667824 -.00029853  00000-0 -20811-3 0  9995,2 52267  53.2153 329.1432 0001192  66.8864 323.6339 15.73303609  2107,6727.6,91.527,350.267,348.663,0.0
52267.0,STARLINK-3748,PAYLOAD,2022-05-01 06:00:00,15.73291541,0.0001075,53.215,327.4922,67.1426,52.414,-0.00082501,-0.00115278,0.0,0 STARLINK-3748,1 52267U 22041G   22121.25001157 -.00115278  00000-0 -82501-3 0  9995,2 52267  53.2150 327.4922 0001075  67.1426  52.4140 15.73291541  2734,6727.634,91.528,350.222,348.776,0.0
52267.0,STARLINK-3748,PAYLOAD,2022-05-01 14:00:01,15.7321816,0.000115,53.215,325.8417,79.4134,129.1,-0.00060022,-0.00084083,0.0,0 STARLINK-3748,1 52267U 22041G   22121.58334491 -.00084083  00000-0 -60022-3 0  9994,2 52267  53.2150 325.8417 0001150  79.4134 129.1000 15.73218160  2206,6727.843000000003,91.532,350.482,348.935,0.0
52267.0,STARLINK-3748,PAYLOAD,2022-05-01 22:00:01,15.73115476,0.0001286,53.2148,324.1943,65.6533,231.8512,0.00037156,0.00051658,0.0,0 STARLINK-3748,1 52267U 22041G   22121.91668981  .00051658  00000-0  37156-3 0  9997,2 52267  53.2148 324.1943 0001286  65.6533 231.8512 15.73115476  2260,6728.136,91.538,350.866,349.136,0.0
52267.0,STARLINK-3748,PAYLOAD,2022-05-02 04:00:00,15.73160464,0.0001174,53.2144,322.9563,65.1627,208.9067,0.00015741,0.00021491,0.0,0 STARLINK-3748,1 52267U 22041G   22122.16667824  .00021491  00000-0  15741-3 0  9998,2 52267  53.2144 322.9563 0001174  65.1627 208.9067 15.73160464  2880,6728.0080000000025,91.535,350.663,349.083,0.0
52267.0,STARLINK-3748,PAYLOAD,2022-05-02 14:00:01,15.73200195,0.000111,53.215,320.893,75.5703,39.6085,0.00028109,0.00039013,0.0,0 STARLINK-3748,1 52267U 22041G   22122.58334491  .00039013  00000-0  28109-3 0  9996,2 52267  53.2150 320.8930 0001110  75.5703  39.6085 15.73200195  2360,6727.895,91.533,350.506,349.01300000000015,0.0
52267.0,STARLINK-3748,PAYLOAD,2022-05-02 20:00:01,15.73244523,0.0001068,53.2148,319.6575,58.3304,33.5635,-0.00054353,-0.00076354,0.0,0 STARLINK-3748,1 52267U 22041G   22122.83334491 -.00076354  00000-0 -54353-3 0  9995,2 52267  53.2148 319.6575 0001068  58.3304  33.5635 15.73244523  2981,6727.768,91.531,350.352,348.915,0.0
52267.0,STARLINK-3748,PAYLOAD,2022-05-02 22:00:01,15.73202433,0.0001085999999999,53.2151,319.2454,53.733,150.4788,-2.5355e-05,-4.176e-05,0.0,0 STARLINK-3748,1 52267U 22041G   22122.91668981 -.00004176  00000-0 -25355-4 0  9992,2 52267  53.2151 319.2454 0001086  53.7330 150.4788 15.73202433  2426,6727.888000000001,91.533,350.4840000000001,349.023,0.0
52267.0,STARLINK-3748,PAYLOAD,2022-05-03 04:00:00,15.73213626,9.29e-05,53.2147,318.0073,50.6451,130.1966,0.0001174,0.00015897,0.0,0 STARLINK-3748,1 52267U 22041G   22123.16667824  .00015897  00000-0  11740-3 0  9997,2 52267  53.2147 318.0073 0000929  50.6451 130.1966 15.73213626  3037,6727.856,91.532,350.346,349.096,0.0
52267.0,STARLINK-3748,PAYLOAD,2022-05-03 14:00:01,15.73238661,9.86e-05,53.215,315.9443,64.8562,317.1736,-0.00020139,-0.00028832,0.0,0 STARLINK-3748,1 52267U 22041G   22123.58334491 -.00028832  00000-0 -20139-3 0  9991,2 52267  53.2150 315.9443 0000986  64.8562 317.1736 15.73238661  2522,6727.785,91.531,350.31300000000016,348.987,0.0
52267.0,STARLINK-3748,PAYLOAD,2022-05-03 22:00:00,15.73226539,0.000125,53.2146,314.2967,54.2483,56.75100000000001,-6.187199999999999e-05,-9.304e-05,0.0,0 STARLINK-3748,1 52267U 22041G   22123.91667824 -.00009304  00000-0 -61872-4 0  9990,2 52267  53.2146 314.2967 0001250  54.2483  56.7510 15.73226539  2583,6727.82,91.532,350.525,348.844,0.0
52267.0,STARLINK-3748,PAYLOAD,2022-05-04 04:00:00,15.73211789,0.0001249,53.2143,313.0582,58.2405,29.477,0.00016429,0.0002251,0.0,0 STARLINK-3748,1 52267U 22041G   22124.16667824  .00022510  00000-0  16429-3 0  9997,2 52267  53.2143 313.0582 0001249  58.2405  29.4770 15.73211789  3190,6727.861999999999,91.532,350.56699999999995,348.886,0.0
52267.0,STARLINK-3748,PAYLOAD,2022-05-04 14:00:01,15.73271337,0.0001301,53.2149,310.9954,67.4863,221.408,-0.00049013,-0.00069054,0.0,0 STARLINK-3748,1 52267U 22041G   22124.58334491 -.00069054  00000-0 -49013-3 0  9995,2 52267  53.2149 310.9954 0001301  67.4863 221.4080 15.73271337  2680,6727.691999999999,91.529,350.432,348.682,0.0
52267.0,STARLINK-3748,PAYLOAD,2022-05-04 22:00:01,15.7321068,0.0001426999999999,53.215,309.3476,55.7615,322.2083,4.9023e-05,6.268e-05,0.0,0 STARLINK-3748,1 52267U 22041G   22124.91668981  .00006268  00000-0  49023-4 0  9994,2 52267  53.2150 309.3476 0001427  55.7615 322.2083 15.73210680  2730,6727.865,91.533,350.69,348.77,0.0
52267.0,STARLINK-3748,PAYLOAD,2022-05-05 04:00:00,15.732444,0.0001315999999999,53.2147,308.1092,54.1602,300.4425,-0.00060316,-0.00084583,0.0,0 STARLINK-3748,1 52267U 22041G   22125.16667824 -.00084583  00000-0 -60316-3 0  9992,2 52267  53.2147 308.1092 0001316  54.1602 300.4425 15.73244400  3357,6727.769,91.531,350.519,348.74800000000016,0.0
